XRISM                   
1 57800U 23137A   23297.54898064  .00003849  00000+0  30880-3 0  9998
2 57800  31.0032  75.4143 0010351  27.1913 332.9263 14.98333309  7130
